ONEWEB-0233             
1 48795U 21045AE  26169.23574842  .00000215  00000+0  53588-3 0  9993
2 48795  87.9001 259.0257 0001818 108.1736 251.9593 13.15549119244434
ONEWEB-0190             
1 48796U 21045AF  26169.22320082  .00000107  00000+0  25129-3 0  9998
2 48796  87.9003 258.9902 0001379 113.5688 246.5587 13.15546746244504
ONEWEB-0236             
1 48797U 21045AG  26168.63218759 -.00000015  00000+0 -72900-4 0  9990
2 48797  87.9001 259.1177 0002112 101.6062 258.5305 13.15547119244315
ONEWEB-0248             
1 48798U 21045AH  26168.79696771  .00000024  00000+0  29183-4 0  9995
2 48798  87.9013 259.0683 0001776 114.7250 245.4066 13.15547563244490
ONEWEB-0225             
1 48799U 21045AJ  26168.81915862 -.00000091  00000+0 -27546-3 0  9990
2 48799  87.9006 259.0721 0001507 110.9308 249.1984 13.15548954244507
ONEWEB-0215             
1 48800U 21045AK  26168.78903850  .00000056  00000+0  11474-3 0  9995
2 48800  87.9013 259.0607 0001520 118.3030 241.8253 13.15547155244375
ONEWEB-0216             
1 48801U 21045AL  26168.79856146 -.00000028  00000+0 -10769-3 0  9999
2 48801  87.9012 259.0736 0001983  98.4435 261.6920 13.15548996244384
ONEWEB-0239             
1 48802U 21045AM  26168.80331017 -.00000034  00000+0 -12553-3 0  9997
2 48802  87.9002 259.0788 0001708 125.0286 235.1005 13.15548914244422
ONEWEB-0249             
1 48967U 21060A   26169.11684761 -.00000022  00000+0 -92125-4 0  9999
2 48967  87.9097 228.5936 0002080 101.0649 259.0716 13.16595785239736
ONEWEB-0250             
1 48968U 21060B   26169.13768192  .00000071  00000+0  13077-3 0  9993
2 48968  87.9097 226.3426 0002840 112.8841 247.2595 13.25834091240344
ONEWEB-0252             
1 48970U 21060D   26169.14772727  .00000120  00000+0  28002-3 0  9995
2 48970  87.9095 228.5796 0001899  92.4947 267.6402 13.16594380239785
ONEWEB-0253             
1 48971U 21060E   26169.13664525  .00000069  00000+0  14571-3 0  9999
2 48971  87.9095 228.5874 0002078 101.1643 258.9721 13.16593482239716
ONEWEB-0254             
1 48972U 21060F   26168.61416623  .00000102  00000+0  23253-3 0  9991
2 48972  87.9098 228.6886 0001914 106.6215 253.5126 13.16594799239641
ONEWEB-0255             
1 48973U 21060G   26169.10814575  .00000001  00000+0 -30044-4 0  9991
2 48973  87.9097 228.5971 0001929 101.7575 258.3773 13.16595256239781
ONEWEB-0256             
1 48974U 21060H   26169.13425907 -.00002063  00000+0 -54307-2 0  9999
2 48974  87.9104 228.5976 0002267 105.6795 254.4586 13.16604164239754
ONEWEB-0257             
1 48975U 21060J   26169.09072538  .00000097  00000+0  21903-3 0  9993
2 48975  87.9098 228.5918 0001900  97.8218 262.3128 13.16595025239708
