[{"OBJECT_NAME":"ONEWEB-0233","OBJECT_ID":"2021-045AE","EPOCH":"2026-06-18T05:39:28.663488","MEAN_MOTION":13.15549119,"ECCENTRICITY":0.0001818,"INCLINATION":87.9001,"RA_OF_ASC_NODE":259.0257,"ARG_OF_PERICENTER":108.1736,"MEAN_ANOMALY":251.9593,"EPHEMERIS_TYPE":0,"CLASSIFICATION_TYPE":"U","NORAD_CAT_ID":48795,"ELEMENT_SET_NO":999,"REV_AT_EPOCH":24443,"BSTAR":0.0005358800000000001,"MEAN_MOTION_DOT":2.15e-06,"MEAN_MOTION_DDOT":0.0},{"OBJECT_NAME":"ONEWEB-0190","OBJECT_ID":"2021-045AF","EPOCH":"2026-06-18T05:21:24.550848","MEAN_MOTION":13.15546746,"ECCENTRICITY":0.0001379,"INCLINATION":87.9003,"RA_OF_ASC_NODE":258.9902,"ARG_OF_PERICENTER":113.5688,"MEAN_ANOMALY":246.5587,"EPHEMERIS_TYPE":0,"CLASSIFICATION_TYPE":"U","NORAD_CAT_ID":48796,"ELEMENT_SET_NO":999,"REV_AT_EPOCH":24450,"BSTAR":0.00025129000000000004,"MEAN_MOTION_DOT":1.07e-06,"MEAN_MOTION_DDOT":0.0},{"OBJECT_NAME":"ONEWEB-0236","OBJECT_ID":"2021-045AG","EPOCH":"2026-06-17T15:10:21.007776","MEAN_MOTION":13.15547119,"ECCENTRICITY":0.0002112,"INCLINATION":87.9001,"RA_OF_ASC_NODE":259.1177,"ARG_OF_PERICENTER":101.6062,"MEAN_ANOMALY":258.5305,"EPHEMERIS_TYPE":0,"CLASSIFICATION_TYPE":"U","NORAD_CAT_ID":48797,"ELEMENT_SET_NO":999,"REV_AT_EPOCH":24431,"BSTAR":-7.29e-05,"MEAN_MOTION_DOT":-1.5e-07,"MEAN_MOTION_DDOT":0.0},{"OBJECT_NAME":"ONEWEB-0248","OBJECT_ID":"2021-045AH","EPOCH":"2026-06-17T19:07:38.010144","MEAN_MOTION":13.15547563,"ECCENTRICITY":0.0001776,"INCLINATION":87.9013,"RA_OF_ASC_NODE":259.0683,"ARG_OF_PERICENTER":114.725,"MEAN_ANOMALY":245.4066,"EPHEMERIS_TYPE":0,"CLASSIFICATION_TYPE":"U","NORAD_CAT_ID":48798,"ELEMENT_SET_NO":999,"REV_AT_EPOCH":24449,"BSTAR":2.9182999999999998e-05,"MEAN_MOTION_DOT":2.4e-07,"MEAN_MOTION_DDOT":0.0},{"OBJECT_NAME":"ONEWEB-0225","OBJECT_ID":"2021-045AJ","EPOCH":"2026-06-17T19:39:35.304768","MEAN_MOTION":13.15548954,"ECCENTRICITY":0.0001507,"INCLINATION":87.9006,"RA_OF_ASC_NODE":259.0721,"ARG_OF_PERICENTER":110.9308,"MEAN_ANOMALY":249.1984,"EPHEMERIS_TYPE":0,"CLASSIFICATION_TYPE":"U","NORAD_CAT_ID":48799,"ELEMENT_SET_NO":999,"REV_AT_EPOCH":24450,"BSTAR":-0.00027546,"MEAN_MOTION_DOT":-9.1e-07,"MEAN_MOTION_DDOT":0.0},{"OBJECT_NAME":"ONEWEB-0215","OBJECT_ID":"2021-045AK","EPOCH":"2026-06-17T18:56:12.926400","MEAN_MOTION":13.15547155,"ECCENTRICITY":0.000152,"INCLINATION":87.9013,"RA_OF_ASC_NODE":259.0607,"ARG_OF_PERICENTER":118.303,"MEAN_ANOMALY":241.8253,"EPHEMERIS_TYPE":0,"CLASSIFICATION_TYPE":"U","NORAD_CAT_ID":48800,"ELEMENT_SET_NO":999,"REV_AT_EPOCH":24437,"BSTAR":0.00011474,"MEAN_MOTION_DOT":5.6e-07,"MEAN_MOTION_DDOT":0.0},{"OBJECT_NAME":"ONEWEB-0216","OBJECT_ID":"2021-045AL","EPOCH":"2026-06-17T19:09:55.710144","MEAN_MOTION":13.15548996,"ECCENTRICITY":0.0001983,"INCLINATION":87.9012,"RA_OF_ASC_NODE":259.0736,"ARG_OF_PERICENTER":98.4435,"MEAN_ANOMALY":261.692,"EPHEMERIS_TYPE":0,"CLASSIFICATION_TYPE":"U","NORAD_CAT_ID":48801,"ELEMENT_SET_NO":999,"REV_AT_EPOCH":24438,"BSTAR":-0.00010769,"MEAN_MOTION_DOT":-2.8e-07,"MEAN_MOTION_DDOT":0.0},{"OBJECT_NAME":"ONEWEB-0239","OBJECT_ID":"2021-045AM","EPOCH":"2026-06-17T19:16:45.998688","MEAN_MOTION":13.15548914,"ECCENTRICITY":0.0001708,"INCLINATION":87.9002,"RA_OF_ASC_NODE":259.0788,"ARG_OF_PERICENTER":125.0286,"MEAN_ANOMALY":235.1005,"EPHEMERIS_TYPE":0,"CLASSIFICATION_TYPE":"U","NORAD_CAT_ID":48802,"ELEMENT_SET_NO":999,"REV_AT_EPOCH":24442,"BSTAR":-0.00012553,"MEAN_MOTION_DOT":-3.4e-07,"MEAN_MOTION_DDOT":0.0},{"OBJECT_NAME":"ONEWEB-0249","OBJECT_ID":"2021-060A","EPOCH":"2026-06-18T02:48:15.633504","MEAN_MOTION":13.16595785,"ECCENTRICITY":0.000208,"INCLINATION":87.9097,"RA_OF_ASC_NODE":228.5936,"ARG_OF_PERICENTER":101.0649,"MEAN_ANOMALY":259.0716,"EPHEMERIS_TYPE":0,"CLASSIFICATION_TYPE":"U","NORAD_CAT_ID":48967,"ELEMENT_SET_NO":999,"REV_AT_EPOCH":23973,"BSTAR":-9.2125e-05,"MEAN_MOTION_DOT":-2.2e-07,"MEAN_MOTION_DDOT":0.0},{"OBJECT_NAME":"ONEWEB-0250","OBJECT_ID":"2021-060B","EPOCH":"2026-06-18T03:18:15.717888","MEAN_MOTION":13.25834091,"ECCENTRICITY":0.000284,"INCLINATION":87.9097,"RA_OF_ASC_NODE":226.3426,"ARG_OF_PERICENTER":112.8841,"MEAN_ANOMALY":247.2595,"EPHEMERIS_TYPE":0,"CLASSIFICATION_TYPE":"U","NORAD_CAT_ID":48968,"ELEMENT_SET_NO":999,"REV_AT_EPOCH":24034,"BSTAR":0.00013077,"MEAN_MOTION_DOT":7.1e-07,"MEAN_MOTION_DDOT":0.0},{"OBJECT_NAME":"ONEWEB-0252","OBJECT_ID":"2021-060D","EPOCH":"2026-06-18T03:32:43.636128","MEAN_MOTION":13.1659438,"ECCENTRICITY":0.0001899,"INCLINATION":87.9095,"RA_OF_ASC_NODE":228.5796,"ARG_OF_PERICENTER":92.4947,"MEAN_ANOMALY":267.6402,"EPHEMERIS_TYPE":0,"CLASSIFICATION_TYPE":"U","NORAD_CAT_ID":48970,"ELEMENT_SET_NO":999,"REV_AT_EPOCH":23978,"BSTAR":0.00028002,"MEAN_MOTION_DOT":1.2e-06,"MEAN_MOTION_DDOT":0.0},{"OBJECT_NAME":"ONEWEB-0253","OBJECT_ID":"2021-060E","EPOCH":"2026-06-18T03:16:46.149600","MEAN_MOTION":13.16593482,"ECCENTRICITY":0.0002078,"INCLINATION":87.9095,"RA_OF_ASC_NODE":228.5874,"ARG_OF_PERICENTER":101.1643,"MEAN_ANOMALY":258.9721,"EPHEMERIS_TYPE":0,"CLASSIFICATION_TYPE":"U","NORAD_CAT_ID":48971,"ELEMENT_SET_NO":999,"REV_AT_EPOCH":23971,"BSTAR":0.00014571,"MEAN_MOTION_DOT":6.9e-07,"MEAN_MOTION_DDOT":0.0},{"OBJECT_NAME":"ONEWEB-0254","OBJECT_ID":"2021-060F","EPOCH":"2026-06-17T14:44:23.962272","MEAN_MOTION":13.16594799,"ECCENTRICITY":0.0001914,"INCLINATION":87.9098,"RA_OF_ASC_NODE":228.6886,"ARG_OF_PERICENTER":106.6215,"MEAN_ANOMALY":253.5126,"EPHEMERIS_TYPE":0,"CLASSIFICATION_TYPE":"U","NORAD_CAT_ID":48972,"ELEMENT_SET_NO":999,"REV_AT_EPOCH":23964,"BSTAR":0.00023253,"MEAN_MOTION_DOT":1.02e-06,"MEAN_MOTION_DDOT":0.0},{"OBJECT_NAME":"ONEWEB-0255","OBJECT_ID":"2021-060G","EPOCH":"2026-06-18T02:35:43.792800","MEAN_MOTION":13.16595256,"ECCENTRICITY":0.0001929,"INCLINATION":87.9097,"RA_OF_ASC_NODE":228.5971,"ARG_OF_PERICENTER":101.7575,"MEAN_ANOMALY":258.3773,"EPHEMERIS_TYPE":0,"CLASSIFICATION_TYPE":"U","NORAD_CAT_ID":48973,"ELEMENT_SET_NO":999,"REV_AT_EPOCH":23978,"BSTAR":-3.0044e-05,"MEAN_MOTION_DOT":1e-08,"MEAN_MOTION_DDOT":0.0},{"OBJECT_NAME":"ONEWEB-0256","OBJECT_ID":"2021-060H","EPOCH":"2026-06-18T03:13:19.983648","MEAN_MOTION":13.16604164,"ECCENTRICITY":0.0002267,"INCLINATION":87.9104,"RA_OF_ASC_NODE":228.5976,"ARG_OF_PERICENTER":105.6795,"MEAN_ANOMALY":254.4586,"EPHEMERIS_TYPE":0,"CLASSIFICATION_TYPE":"U","NORAD_CAT_ID":48974,"ELEMENT_SET_NO":999,"REV_AT_EPOCH":23975,"BSTAR":-0.005430700000000001,"MEAN_MOTION_DOT":-2.063e-05,"MEAN_MOTION_DDOT":0.0},{"OBJECT_NAME":"ONEWEB-0257","OBJECT_ID":"2021-060J","EPOCH":"2026-06-18T02:10:38.672832","MEAN_MOTION":13.16595025,"ECCENTRICITY":0.00019,"INCLINATION":87.9098,"RA_OF_ASC_NODE":228.5918,"ARG_OF_PERICENTER":97.8218,"MEAN_ANOMALY":262.3128,"EPHEMERIS_TYPE":0,"CLASSIFICATION_TYPE":"U","NORAD_CAT_ID":48975,"ELEMENT_SET_NO":999,"REV_AT_EPOCH":23970,"BSTAR":0.00021903,"MEAN_MOTION_DOT":9.7e-07,"MEAN_MOTION_DDOT":0.0}]